{
  "type": "FeatureCollection",
  "features": [
    {
      "type": "Feature",
      "properties": {
        "norad_id": 34556,
        "name": "COSMOS 2251 DEB",
        "group": "cosmos-2251-debris",
        "lat": 58.05745692073924,
        "lon": 139.0338822306065,
        "alt_km": 631.3682261640461,
        "timestamp": "2025-12-19T10:50:01.596209+00:00",
        "meta_object_name": "COSMOS 2251 DEB",
        "meta_object_id": "1993-036US",
        "meta_epoch": "2025-12-18T17:12:46.541376",
        "meta_mean_motion": 14.77982629,
        "meta_eccentricity": 0.00070417,
        "meta_inclination": 74.0158,
        "meta_ra_of_asc_node": 113.106,
        "meta_arg_of_pericenter": 173.4887,
        "meta_mean_anomaly": 303.7225,
        "meta_ephemeris_type": 0,
        "meta_classification_type": "U",
        "meta_norad_cat_id": 34556,
        "meta_element_set_no": 999,
        "meta_rev_at_epoch": 88417,
        "meta_bstar": 0.0017847298,
        "meta_mean_motion_dot": 0.00012871,
        "meta_mean_motion_ddot": 0,
        "tle_line1": "1 34556U 93036US  25352.71720534  .00012871  00000+0  17847-2 0  9997",
        "tle_line2": "2 34556  74.0158 113.1060 0007041 173.4887 303.7225 14.77982629884177"
      },
      "geometry": {
        "type": "Point",
        "coordinates": [
          139.0338822306065,
          58.05745692073924
        ]
      }
    },
    {
      "type": "Feature",
      "properties": {
        "norad_id": 34560,
        "name": "COSMOS 2251 DEB",
        "group": "cosmos-2251-debris",
        "lat": 1.567742430047974,
        "lon": -51.39152709140961,
        "alt_km": 647.7264619955531,
        "timestamp": "2025-12-19T10:50:01.596220+00:00",
        "meta_object_name": "COSMOS 2251 DEB",
        "meta_object_id": "1993-036UW",
        "meta_epoch": "2025-12-18T20:01:55.517376",
        "meta_mean_motion": 14.72290219,
        "meta_eccentricity": 0.00142436,
        "meta_inclination": 74.0159,
        "meta_ra_of_asc_node": 130.259,
        "meta_arg_of_pericenter": 212.1833,
        "meta_mean_anomaly": 298.6419,
        "meta_ephemeris_type": 0,
        "meta_classification_type": "U",
        "meta_norad_cat_id": 34560,
        "meta_element_set_no": 999,
        "meta_rev_at_epoch": 88341,
        "meta_bstar": 0.0016989681,
        "meta_mean_motion_dot": 0.00010739,
        "meta_mean_motion_ddot": 0,
        "tle_line1": "1 34560U 93036UW  25352.83467034  .00010739  00000+0  16990-2 0  9997",
        "tle_line2": "2 34560  74.0159 130.2590 0014243 212.1833 298.6419 14.72290219883410"
      },
      "geometry": {
        "type": "Point",
        "coordinates": [
          -51.39152709140961,
          1.567742430047974
        ]
      }
    },
    {
      "type": "Feature",
      "properties": {
        "norad_id": 34563,
        "name": "COSMOS 2251 DEB",
        "group": "cosmos-2251-debris",
        "lat": 40.82042499659314,
        "lon": -154.50739365415254,
        "alt_km": 738.0849478420296,
        "timestamp": "2025-12-19T10:50:01.596230+00:00",
        "meta_object_name": "COSMOS 2251 DEB",
        "meta_object_id": "1993-036UZ",
        "meta_epoch": "2025-12-18T23:34:47.077248",
        "meta_mean_motion": 14.46528438,
        "meta_eccentricity": 0.00138966,
        "meta_inclination": 74.0369,
        "meta_ra_of_asc_node": 192.053,
        "meta_arg_of_pericenter": 285.6893,
        "meta_mean_anomaly": 196.1875,
        "meta_ephemeris_type": 0,
        "meta_classification_type": "U",
        "meta_norad_cat_id": 34563,
        "meta_element_set_no": 999,
        "meta_rev_at_epoch": 88287,
        "meta_bstar": 0.00032718131,
        "meta_mean_motion_dot": 1.153e-05,
        "meta_mean_motion_ddot": 0,
        "tle_line1": "1 34563U 93036UZ  25352.98248932  .00001153  00000+0  32718-3 0  9997",
        "tle_line2": "2 34563  74.0369 192.0530 0013896 285.6893 196.1875 14.46528438882875"
      },
      "geometry": {
        "type": "Point",
        "coordinates": [
          -154.50739365415254,
          40.82042499659314
        ]
      }
    },
    {
      "type": "Feature",
      "properties": {
        "norad_id": 34564,
        "name": "COSMOS 2251 DEB",
        "group": "cosmos-2251-debris",
        "lat": 39.27122325878233,
        "lon": -120.86556260985839,
        "alt_km": 748.7394592819401,
        "timestamp": "2025-12-19T10:50:01.596240+00:00",
        "meta_object_name": "COSMOS 2251 DEB",
        "meta_object_id": "1993-036VA",
        "meta_epoch": "2025-12-18T20:13:14.968704",
        "meta_mean_motion": 14.40700578,
        "meta_eccentricity": 0.00192438,
        "meta_inclination": 74.0318,
        "meta_ra_of_asc_node": 226.7209,
        "meta_arg_of_pericenter": 329.7579,
        "meta_mean_anomaly": 154.634,
        "meta_ephemeris_type": 0,
        "meta_classification_type": "U",
        "meta_norad_cat_id": 34564,
        "meta_element_set_no": 999,
        "meta_rev_at_epoch": 88094,
        "meta_bstar": 0.00019604533,
        "meta_mean_motion_dot": 6.01e-06,
        "meta_mean_motion_ddot": 0,
        "tle_line1": "1 34564U 93036VA  25352.84253436  .00000601  00000+0  19605-3 0  9995",
        "tle_line2": "2 34564  74.0318 226.7209 0019243 329.7579 154.6340 14.40700578880944"
      },
      "geometry": {
        "type": "Point",
        "coordinates": [
          -120.86556260985839,
          39.27122325878233
        ]
      }
    },
    {
      "type": "Feature",
      "properties": {
        "norad_id": 34567,
        "name": "COSMOS 2251 DEB",
        "group": "cosmos-2251-debris",
        "lat": 42.197826732139426,
        "lon": 159.73870154306223,
        "alt_km": 861.0006905833843,
        "timestamp": "2025-12-19T10:50:01.596250+00:00",
        "meta_object_name": "COSMOS 2251 DEB",
        "meta_object_id": "1993-036VD",
        "meta_epoch": "2025-12-18T21:53:53.679840",
        "meta_mean_motion": 14.24023202,
        "meta_eccentricity": 0.0074285,
        "meta_inclination": 74.0405,
        "meta_ra_of_asc_node": 145.6706,
        "meta_arg_of_pericenter": 218.6375,
        "meta_mean_anomaly": 303.884,
        "meta_ephemeris_type": 0,
        "meta_classification_type": "U",
        "meta_norad_cat_id": 34567,
        "meta_element_set_no": 999,
        "meta_rev_at_epoch": 87212,
        "meta_bstar": 0.0001927977,
        "meta_mean_motion_dot": 4.3e-06,
        "meta_mean_motion_ddot": 0,
        "tle_line1": "1 34567U 93036VD  25352.91242685  .00000430  00000+0  19280-3 0  9999",
        "tle_line2": "2 34567  74.0405 145.6706 0074285 218.6375 303.8840 14.24023202872120"
      },
      "geometry": {
        "type": "Point",
        "coordinates": [
          159.73870154306223,
          42.197826732139426
        ]
      }
    },
    {
      "type": "Feature",
      "properties": {
        "norad_id": 34569,
        "name": "COSMOS 2251 DEB",
        "group": "cosmos-2251-debris",
        "lat": -45.33927488861995,
        "lon": 22.89157179253371,
        "alt_km": 908.0615368600138,
        "timestamp": "2025-12-19T10:50:01.596260+00:00",
        "meta_object_name": "COSMOS 2251 DEB",
        "meta_object_id": "1993-036VF",
        "meta_epoch": "2025-12-18T08:45:09.793152",
        "meta_mean_motion": 14.24766688,
        "meta_eccentricity": 0.01575553,
        "meta_inclination": 73.9892,
        "meta_ra_of_asc_node": 187.965,
        "meta_arg_of_pericenter": 15.0684,
        "meta_mean_anomaly": 41.9169,
        "meta_ephemeris_type": 0,
        "meta_classification_type": "U",
        "meta_norad_cat_id": 34569,
        "meta_element_set_no": 999,
        "meta_rev_at_epoch": 87048,
        "meta_bstar": 0.00038085934,
        "meta_mean_motion_dot": 9.83e-06,
        "meta_mean_motion_ddot": 0,
        "tle_line1": "1 34569U 93036VF  25352.36469668  .00000983  00000+0  38086-3 0  9990",
        "tle_line2": "2 34569  73.9892 187.9650 0157555  15.0684  41.9169 14.24766688870484"
      },
      "geometry": {
        "type": "Point",
        "coordinates": [
          22.89157179253371,
          -45.33927488861995
        ]
      }
    },
    {
      "type": "Feature",
      "properties": {
        "norad_id": 34570,
        "name": "COSMOS 2251 DEB",
        "group": "cosmos-2251-debris",
        "lat": -72.54227143009307,
        "lon": 140.41051583536048,
        "alt_km": 1037.8219326413355,
        "timestamp": "2025-12-19T10:50:01.596270+00:00",
        "meta_object_name": "COSMOS 2251 DEB",
        "meta_object_id": "1993-036VG",
        "meta_epoch": "2025-12-17T14:47:22.949376",
        "meta_mean_motion": 13.99827814,
        "meta_eccentricity": 0.01902686,
        "meta_inclination": 73.9566,
        "meta_ra_of_asc_node": 209.802,
        "meta_arg_of_pericenter": 91.1991,
        "meta_mean_anomaly": 301.5791,
        "meta_ephemeris_type": 0,
        "meta_classification_type": "U",
        "meta_norad_cat_id": 34570,
        "meta_element_set_no": 999,
        "meta_rev_at_epoch": 85669,
        "meta_bstar": 0.00040162603,
        "meta_mean_motion_dot": 6.66e-06,
        "meta_mean_motion_ddot": 0,
        "tle_line1": "1 34570U 93036VG  25351.61623784  .00000666  00000+0  40163-3 0  9997",
        "tle_line2": "2 34570  73.9566 209.8020 0190268  91.1991 301.5791 13.99827814856696"
      },
      "geometry": {
        "type": "Point",
        "coordinates": [
          140.41051583536048,
          -72.54227143009307
        ]
      }
    }
  ]
}